STARLINK-33879          
1 63634U 25083A   25144.41668981 -.00029148  00000+0 -69263-3 0  9993
2 63634  42.9997 200.8956 0001388 270.7337  65.8436 15.40723670  5803
STARLINK-33854          
1 63635U 25083B   25145.58335648  .00065843  00000+0  15716-2 0  9997
2 63635  42.9996 194.1416 0001533 278.4481  69.2389 15.40667024  6060
STARLINK-33864          
1 63636U 25083C   25145.58335648  .00061272  00000+0  14637-2 0  9991
2 63636  42.9997 194.2031 0001475 280.2530  42.5576 15.40671109  6002
STARLINK-33832          
1 63637U 25083D   25145.58335648  .00066083  00000+0  15770-2 0  9996
2 63637  42.9995 194.0811 0001439 275.6096  96.9499 15.40671947  6063
STARLINK-33856          
1 63638U 25083E   25145.58335648  .00053420  00000+0  91117-3 0  9998
2 63638  42.9992 193.7837 0001530 277.8472 217.5668 15.50548682  5988
STARLINK-33876          
1 63639U 25083F   25145.58335648  .00075405  00000+0  17968-2 0  9997
2 63639  42.9992 193.9903 0001489 286.2116 123.6251 15.40662829  6061
STARLINK-33859          
1 63640U 25083G   25145.58335648  .00074073  00000+0  17655-2 0  9992
2 63640  42.9993 193.9611 0001515 283.4329 138.8959 15.40662683  5986
STARLINK-33826          
1 63641U 25083H   25145.58335648  .00058161  00000+0  13911-2 0  9994
2 63641  42.9995 193.9282 0001495 272.5745 162.2023 15.40653906  6062
STARLINK-33836          
1 63642U 25083J   25145.58335648  .00079018  00000+0  18824-2 0  9997
2 63642  42.9991 193.9001 0001656 283.6428 163.5779 15.40650583  5988
STARLINK-33558          
1 63643U 25083K   25145.58335648 -.00719585  00000+0 -18310-1 0  9999
2 63643  42.9992 193.8694 0001359 275.1692 184.1597 15.41236621  6067
STARLINK-33852          
1 63644U 25083L   25145.58335648 -.01466010  00000+0 -36545-1 0  9993
2 63644  42.9991 193.8440 0001496 286.5556 183.7975 15.42447369  6017
STARLINK-33835          
1 63645U 25083M   25145.58335648 -.01462474  00000+0 -35284-1 0  9993
2 63645  42.9991 193.8189 0001375 286.3416 194.0625 15.43403519  6014
STARLINK-33661          
1 63646U 25083N   25145.58335648 -.01465956  00000+0 -34236-1 0  9998
2 63646  42.9992 193.7962 0001173 285.4975 203.9348 15.44363239  6017
STARLINK-33729          
1 63647U 25083P   25145.58335648 -.01463493  00000+0 -33063-1 0  9990
2 63647  42.9992 193.7780 0001154 281.7993 215.6370 15.45322098  6063
STARLINK-33717          
1 63648U 25083Q   25145.58335648 -.01466121  00000+0 -32044-1 0  9990
2 63648  42.9993 193.7591 0001165 281.7218 222.6983 15.46282026  5982
STARLINK-33684          
1 63649U 25083R   25145.58335648 -.01465430  00000+0 -30975-1 0  9994
2 63649  42.9992 193.7459 0001161 282.1058 228.2783 15.47239258  6068
STARLINK-33704          
1 63650U 25083S   25145.58335648 -.01464516  00000+0 -28929-1 0  9996
2 63650  42.9991 193.7228 0001277 276.3156 242.9279 15.49156532  6063
STARLINK-33705          
1 63651U 25083T   25145.58335648 -.01480050  00000+0 -28273-1 0  9990
2 63651  42.9992 193.7173 0001226 282.9213 239.2142 15.50126255  6019
STARLINK-33663          
1 63652U 25083U   25145.58335648 -.01176678  00000+0 -21743-1 0  9994
2 63652  42.9992 193.7106 0001154 272.8707 251.2481 15.50872401  5988
STARLINK-33866          
1 63653U 25083V   25145.58335648  .00036109  00000+0  61884-3 0  9998
2 63653  42.9992 193.7012 0001595 279.7889 248.2097 15.50562158  6098
STARLINK-33849          
1 63654U 25083W   25145.58335648  .00052443  00000+0  89461-3 0  9999
2 63654  42.9990 193.6922 0001513 276.6507 255.1847 15.50552235  6061
STARLINK-33873          
1 63655U 25083X   25145.58335648  .00023890  00000+0  41201-3 0  9994
2 63655  42.9990 193.7061 0001577 271.2408 254.8430 15.50564341  6096
STARLINK-33772          
1 63656U 25083Y   25145.58335648  .00044619  00000+0  76272-3 0  9993
2 63656  42.9991 193.6968 0001590 272.8350 257.0875 15.50554032  6095
STARLINK-33789          
1 63657U 25083Z   25145.58335648  .00057319  00000+0  97687-3 0  9998
2 63657  42.9993 193.6861 0001545 275.7867 257.9712 15.50545388  6098
STARLINK-33822          
1 63658U 25083AA  25145.58335648  .00036739  00000+0  62958-3 0  9995
2 63658  42.9993 193.6812 0001541 273.0647 262.6073 15.50558241  6093
STARLINK-33771          
1 63659U 25083AB  25145.58335648  .00062534  00000+0  14934-2 0  9998
2 63659  42.9998 197.0224 0001283 277.7208 338.5833 15.40671944  6116
STARLINK-33810          
1 63660U 25083AC  25145.58335648  .00025644  00000+0  44159-3 0  9994
2 63660  42.9994 193.6766 0001536 273.9661 263.6081 15.50573262  6094
STARLINK-33823          
1 63661U 25083AD  25145.58335648 -.01462327  00000+0 -29880-1 0  9993
2 63661  42.9994 193.7315 0001187 287.3967 227.9272 15.48196768  6012
TIANLIAN 2-05           
1 63662U 25084A   25145.05817598  .00000130  00000+0  00000+0 0  9994
2 63662   5.4333 284.1713 0002297 165.7684 194.2526  1.00275005   498
CZ-3B R/B               
1 63663U 25084B   25144.26165659  .00043657 -11346-6  17438-2 0  9991
2 63663  27.2097  81.5929 7221446 195.9754 115.7699  2.39509498   639
STARLINK-11651 [DTC]    
1 63664U 25085A   25145.58335648  .00020615  00000+0  12114-3 0  9999
2 63664  42.9975 217.4540 0001546 276.2756  70.1959 15.77837617  4936
STARLINK-11672 [DTC]    
1 63665U 25085B   25145.58335648  .00013251  00000+0  78932-4 0  9999
2 63665  42.9970 217.3847 0001530 273.7612 100.4556 15.77844579  5539
STARLINK-11664 [DTC]    
1 63666U 25085C   25145.58335648  .00015220  00000+0  90219-4 0  9990
2 63666  42.9968 217.3163 0001526 272.4035 129.5649 15.77842775  4932
STARLINK-11666 [DTC]    
1 63667U 25085D   25145.58335648  .00022526  00000+0  13206-3 0  9998
2 63667  42.9974 217.2487 0001564 271.4886 158.2300 15.77840206  4832
STARLINK-11663 [DTC]    
1 63668U 25085E   25145.58335648 -.00000008  00000+0  28211-5 0  9995
2 63668  42.9977 217.1799 0001630 281.9961 175.4611 15.77854303  4935
STARLINK-11595 [DTC]    
1 63669U 25085F   25145.58335648  .00029119  00000+0  16975-3 0  9991
2 63669  42.9980 217.1111 0001521 275.6298 209.5826 15.77838864  5550
STARLINK-11599 [DTC]    
1 63670U 25085G   25145.58335648  .00016525  00000+0  97687-4 0  9990
2 63670  42.9977 217.0417 0001563 273.3150 239.6530 15.77844483  4935
STARLINK-11603 [DTC]    
1 63671U 25085H   25145.58335648 -.00002287  00000+0 -10283-4 0  9990
2 63671  42.9980 216.9725 0001466 271.6479 269.0654 15.77852651  4937
STARLINK-11644 [DTC]    
1 63672U 25085J   25145.58335648  .00033502  00000+0  19482-3 0  9992
2 63672  42.9981 216.9032 0001577 280.0054 288.4618 15.77833544  4920
STARLINK-11634 [DTC]    
1 63673U 25085K   25145.58335648  .00023657  00000+0  13856-3 0  9992
2 63673  42.9982 216.8350 0001571 278.9238 317.2976 15.77834838  4934
STARLINK-11656 [DTC]    
1 63674U 25085L   25145.58335648  .00022099  00000+0  12966-3 0  9993
2 63674  42.9985 216.7671 0001712 286.5256 337.4513 15.77831986  4948
STARLINK-11655 [DTC]    
1 63675U 25085M   25145.58335648 -.00011285  00000+0 -62074-4 0  9997
2 63675  42.9983 216.6983 0001531 274.5685  17.1547 15.77852741  4945
STARLINK-11661 [DTC]    
1 63676U 25085N   25145.58335648  .00027475  00000+0  16038-3 0  9992
2 63676  42.9983 216.6290 0001613 271.4731  48.0002 15.77836371  5554
STARLINK-33816          
1 63677U 25085P   25145.58335648  .00016986  00000+0  41320-3 0  9990
2 63677  42.9996 220.4365 0001403 275.7859 299.7521 15.40683872  4882
STARLINK-33861          
1 63678U 25085Q   25145.58335648  .00005805  00000+0  14611-3 0  9992
2 63678  42.9999 220.4071 0001665 276.5955 311.3653 15.40701771  4848
STARLINK-33850          
1 63679U 25085R   25145.58335648  .00007078  00000+0  17661-3 0  9995
2 63679  42.9998 220.3761 0001267 279.9063 320.5076 15.40689940  4831
STARLINK-33887          
1 63680U 25085S   25145.58335648  .00028713  00000+0  69257-3 0  9994
2 63680  42.9999 220.3468 0001379 276.2098 336.6438 15.40676538  4839
STARLINK-33886          
1 63681U 25085T   25145.58335648  .00030028  00000+0  72383-3 0  9991
2 63681  43.0000 220.3163 0001495 272.5103 352.7808 15.40676697  4838
STARLINK-33840          
1 63682U 25085U   25145.58335648  .00076848  00000+0  18337-2 0  9990
2 63682  43.0002 220.2548 0001826 282.4604   7.6734 15.40613090  4776
STARLINK-33851          
1 63683U 25085V   25145.58335648  .00013882  00000+0  33907-3 0  9991
2 63683  43.0000 220.2853 0001411 282.4999 355.2304 15.40690853  4835
STARLINK-33853          
1 63684U 25085W   25145.58335648 -.00003355  00000+0 -73106-4 0  9994
2 63684  43.0000 220.2253 0001515 283.9902  18.6314 15.40691819  4840
STARLINK-33847          
1 63685U 25085X   25145.58335648  .00043023  00000+0  10327-2 0  9993
2 63685  42.9999 220.1647 0001603 274.8043  52.7129 15.40661247  4840
STARLINK-33880          
1 63686U 25085Y   25145.58335648  .00066136  00000+0  15781-2 0  9993
2 63686  43.0000 220.1949 0001884 290.6577  24.2761 15.40674380  4950
HULIANWANG DIGUI A      
1 63687U 25086A   25145.46739814  .00000060  00000+0  10131-3 0  9994
2 63687  86.5031  83.7197 0001883  86.8944 273.2407 13.26985208  3551
HULIANWANG DIGUI B      
1 63688U 25086B   25144.23156872 -.00373594  00000+0 -80582+0 0  9996
2 63688  86.5004  84.1276 0002141 150.0617 325.6441 13.31913176  3375
HULIANWANG DIGUI C      
1 63689U 25086C   25145.41485351  .00000072  00000+0  12068-3 0  9999
2 63689  86.5024  83.6938 0001671  86.2508 273.8821 13.30344740  3531
HULIANWANG DIGUI D      
1 63690U 25086D   25143.94069964 -.01051470  00000+0 -23251+1 0  9999
2 63690  86.5100  84.2162 0001815  85.1137  28.1061 13.31363921  3338
HULIANWANG DIGUI E      
1 63691U 25086E   25144.76133660 -.00678202  00000+0 -15274+1 0  9999
2 63691  86.5112  83.9426 0002652 144.8212 277.0315 13.29774131  3443
HULIANWANG DIGUI F      
1 63692U 25086F   25144.78301910 -.00977912  00000+0 -22337+1 0  9995
2 63692  86.5035  83.9223 0001811  89.1663   9.4460 13.28960960  3444
HULIANWANG DIGUI G      
